ONEWEB-0338             
1 49204U 21083U   23349.80857260  .00000228  00000+0  52797-3 0  9994
2 49204  87.9199  96.4821 0002032 126.2949 233.8373 13.20770298116112
ONEWEB-0339             
1 49205U 21083V   23349.91888229 -.00000443  00000+0 -12476-2 0  9996
2 49205  87.8984 142.1885 0001668  99.1069 261.0249 13.13471249110876
ONEWEB-0340             
1 49206U 21083W   23349.89772196 -.00001323  00000+0 -33889-2 0  9998
2 49206  87.9210 157.3440 0001709  93.9968 266.1360 13.18690197109475
ONEWEB-0341             
1 49207U 21083X   23349.90613410 -.00000014  00000+0 -66993-4 0  9994
2 49207  87.9220 157.3565 0002372 101.8224 258.3174 13.18688602109492
ONEWEB-0342             
1 49208U 21083Y   23349.81487591 -.00000239  00000+0 -61899-3 0  9992
2 49208  87.9190  96.5065 0001683 117.1138 243.0167 13.20771247116083
ONEWEB-0343             
1 49209U 21083Z   23349.90191782 -.00000012  00000+0 -62286-4 0  9998
2 49209  87.9203 157.3780 0002499 108.4387 251.7017 13.18686788109549
ONEWEB-0344             
1 49210U 21083AA  23349.88558596  .00000322  00000+0  84711-3 0  9995
2 49210  87.8996 142.2060 0001609  93.1057 267.0256 13.13471309110878
ONEWEB-0345             
1 49211U 21083AB  23349.90304398 -.00000093  00000+0 -28882-3 0  9992
2 49211  87.8984 142.1849 0002152  92.3449 267.7926 13.13470396110887
